[{"OBJECT_NAME":"HAWK-2C","OBJECT_ID":"2021-006CT","EPOCH":"2026-03-09T16:13:22.454976","MEAN_MOTION":15.33286436,"ECCENTRICITY":0.0006943,"INCLINATION":97.2417,"RA_OF_ASC_NODE":114.9961,"ARG_OF_PERICENTER":184.0877,"MEAN_ANOMALY":176.031,"EPHEMERIS_TYPE":0,"CLASSIFICATION_TYPE":"U","NORAD_CAT_ID":47502,"ELEMENT_SET_NO":999,"REV_AT_EPOCH":28424,"BSTAR":0.00025492914,"MEAN_MOTION_DOT":8.129e-5,"MEAN_MOTION_DDOT":0},{"OBJECT_NAME":"STARLINK-32077","OBJECT_ID":"2024-136R","EPOCH":"2026-03-09T09:52:37.501824","MEAN_MOTION":15.30189785,"ECCENTRICITY":0.00014224,"INCLINATION":53.1613,"RA_OF_ASC_NODE":76.8348,"ARG_OF_PERICENTER":76.8529,"MEAN_ANOMALY":283.2631,"EPHEMERIS_TYPE":0,"CLASSIFICATION_TYPE":"U","NORAD_CAT_ID":60344,"ELEMENT_SET_NO":999,"REV_AT_EPOCH":8962,"BSTAR":1.6243841e-5,"MEAN_MOTION_DOT":1.22e-6,"MEAN_MOTION_DDOT":0}]
